ONEWEB-0560             
1 55145U 23004F   25236.39762722  .00000058  00000+0  11359-3 0  9999
2 55145  87.9146  34.4210 0001568  87.8563 272.2749 13.18686185130596
ONEWEB-0565             
1 55146U 23004G   25236.46688564  .00000071  00000+0  14757-3 0  9999
2 55146  87.9138  34.4627 0001374 107.3785 252.7498 13.18685774130596
ONEWEB-0567             
1 55147U 23004H   25236.46029010  .00000103  00000+0  22889-3 0  9996
2 55147  87.9145  34.4229 0001396  96.6369 263.4923 13.18686080130598
ONEWEB-0569             
1 55148U 23004J   25236.44875214  .00000160  00000+0  40249-3 0  9993
2 55148  87.9005  19.1485 0000886  79.0904 281.0325 13.13470215131220
ONEWEB-0570             
1 55149U 23004K   25236.45040946  .00000091  00000+0  19789-3 0  9999
2 55149  87.9141  34.4262 0001836 112.9226 247.2100 13.18686407130585
ONEWEB-0571             
1 55150U 23004L   25236.51969061  .00000225  00000+0  53744-3 0  9994
2 55150  87.9138  34.4180 0000682 128.0167 232.1027 13.18685896130607
ONEWEB-0572             
1 55151U 23004M   25236.53298317  .00000043  00000+0  78693-4 0  9995
2 55151  87.9034  64.8905 0001648  94.2764 265.8556 13.17650539128416
ONEWEB-0573             
1 55152U 23004N   25236.43719630  .00000070  00000+0  14502-3 0  9999
2 55152  87.9138  34.4412 0001317 123.4723 236.6535 13.18686403130585
